import Vue from 'vue'
import Vuex from 'vuex'

Vue.use(Vuex)

export default new Vuex.Store({
    state: {
        //频谱数据
        data: {},
        satellites: [
            // {
            //     id: 1,
            //     name: "Satellite 1",
            //     tleLine1:
            //         "1 58425U 23181A   24175.89720250  -.00000061  00000-0  10270-3 0  9996",
            //     tleLine2:
            //         "2 58425  49.9594  98.8304 0013225 228.3047 131.6699 13.41404685 28660",
            // },
            // {
            //     id: 2,
            //     name: "Satellite 2",
            //     tleLine1:
            //         "1 58426U 23181B   24175.90251880  -.00000057  00000-0  12743-3 0  9995",
            //     tleLine2:
            //         "2 58426  49.9592  98.8541 0011264 231.1540  128.8332 13.41435193 28652",
            // },
            // {
            //     id: 3,
            //     name: "Satellite 3",
            //     tleLine1:
            //         "1 58427U 23181C   24175.89829224  -.00000088  00000-0  72633-4 0  9996",
            //     tleLine2:
            //         "2 58427  49.9592  98.8333 0010960 220.7233  139.2825 13.41381631 28668",
            // },
            {
                id: 2,
                name: 'Starlink- 550 0',
                tleLine1: '1 00001U 00000ABC 00001.00000000  .00000000  00000 - 0  00000 + 0 0    04',
                tleLine2: '2 00001  53.0000   0.0000 0000001   0.0000   0.0000 15.19000000    08'
            },
            {
                id: 3,
                name: 's3',
                tleLine1: '1 00001U 00000ABC 24154.27780093  .00000000  00000-0  00000+0 0    04',
                tleLine2: '2 00001  49.9600 175.9735 0018360 128.7914 278.5751 13.41000000    02'
            }
            // {
            //     id: 4,
            //     name: 'Starlink- 1007',
            //     tleLine1: '1 44713U 19074A   24180.11136084  .00118084  00000+0  76188-2 0  9992',
            //     tleLine2: '2 44713  53.0549  87.9995 0001537  91.5799 268.5367 15.07339591255530'
            // },
            // {
            //     id: 5,
            //     name: 'Starlink - 1008',
            //     tleLine1: '1 44714U 19074B   24180.02483715  .00007442  00000+0  51772-3 0  9997    ',
            //     tleLine2: '2 44714  53.0555  88.3956 0001459  94.3935 265.7220 15.06419125255523',
            // },
        ]
    },
    mutations: {
        updateData(state, data) {
            state.data = data;
        }
    },
    actions: {},
    modules: {}
})
